[{"OBJECT_NAME":"GAOFEN-9 05","OBJECT_ID":"2020-058A","EPOCH":"2026-03-10T00:01:50.876256","MEAN_MOTION":15.30293976,"ECCENTRICITY":0.0010522,"INCLINATION":97.2228,"RA_OF_ASC_NODE":111.963,"ARG_OF_PERICENTER":91.0204,"MEAN_ANOMALY":269.2242,"EPHEMERIS_TYPE":0,"CLASSIFICATION_TYPE":"U","NORAD_CAT_ID":46232,"ELEMENT_SET_NO":999,"REV_AT_EPOCH":30843,"BSTAR":0.00025120304,"MEAN_MOTION_DOT":7.299e-5,"MEAN_MOTION_DDOT":0},{"OBJECT_NAME":"STARLINK-35714","OBJECT_ID":"2025-244J","EPOCH":"2026-03-09T21:08:25.424448","MEAN_MOTION":15.30210555,"ECCENTRICITY":9.954e-5,"INCLINATION":53.157,"RA_OF_ASC_NODE":229.3918,"ARG_OF_PERICENTER":53.1303,"MEAN_ANOMALY":306.9788,"EPHEMERIS_TYPE":0,"CLASSIFICATION_TYPE":"U","NORAD_CAT_ID":66214,"ELEMENT_SET_NO":999,"REV_AT_EPOCH":2168,"BSTAR":0.0011441748,"MEAN_MOTION_DOT":0.00033693,"MEAN_MOTION_DDOT":0}]
